NORAD_CAT_ID,OBJECT_NAME,OBJECT_TYPE,EPOCH,MEAN_MOTION,ECCENTRICITY,INCLINATION,RA_OF_ASC_NODE,ARG_OF_PERICENTER,MEAN_ANOMALY,BSTAR,MEAN_MOTION_DOT,MEAN_MOTION_DDOT,TLE_LINE0,TLE_LINE1,TLE_LINE2,SEMIMAJOR_AXIS,PERIOD,APOGEE,PERIGEE,DECAYED
53432.0,STARLINK-4557,PAYLOAD,2023-09-01 09:25:58,15.08836757,8.35e-05,53.2174,275.2579,95.356,264.7528,0.00010283,1.349e-05,0.0,0 STARLINK-4557,1 53432U 22097AW  23244.39304283  .00001349  00000-0  10283-3 0  9998,2 53432  53.2174 275.2579 0000835  95.3560 264.7528 15.08836757 59370,6917.89,95.438,540.333,539.178,0.0
53432.0,STARLINK-4557,PAYLOAD,2023-09-01 12:36:47,15.08806063,0.0001549,53.2171,274.6626,89.007,271.1099,-0.00028075,-4.749e-05,0.0,0 STARLINK-4557,1 53432U 22097AW  23244.52555171 -.00004749  00000-0 -28075-3 0  9994,2 53432  53.2171 274.6626 0001549  89.0070 271.1099 15.08806063 59879,6917.984,95.44,540.921,538.778,0.0
53432.0,STARLINK-4557,PAYLOAD,2023-09-01 18:58:17,15.0884199,0.0001513,53.2171,273.473,89.2802,270.8364,0.00016047,2.267e-05,0.0,0 STARLINK-4557,1 53432U 22097AW  23244.79048074  .00002267  00000-0  16047-3 0  9999,2 53432  53.2171 273.4730 0001513  89.2802 270.8364 15.08841990 59912,6917.874,95.437,540.786,538.693,0.0
53432.0,STARLINK-4557,PAYLOAD,2023-09-02 01:19:50,15.08839293,0.0001332,53.2185,272.282,83.8279,276.2865,7.5121e-05,9.08e-06,0.0,0 STARLINK-4557,1 53432U 22097AW  23245.05544257  .00000908  00000-0  75121-4 0  9992,2 53432  53.2185 272.2820 0001332  83.8279 276.2865 15.08839293 59954,6917.883,95.438,540.669,538.826,0.0
53432.0,STARLINK-4557,PAYLOAD,2023-09-02 18:49:04,15.0884151,0.0001328,53.2187,269.0112,84.3834,275.731,7.8466e-05,9.61e-06,0.0,0 STARLINK-4557,1 53432U 22097AW  23245.78408234  .00000961  00000-0  78466-4 0  9990,2 53432  53.2187 269.0112 0001328  84.3834 275.7310 15.08841510 60060,6917.876,95.437,540.659,538.822,0.0
53432.0,STARLINK-4557,PAYLOAD,2023-09-03 07:32:10,15.08823273,0.0001406,53.2183,266.6323,82.7511,277.3641,0.00027108,4.027e-05,0.0,0 STARLINK-4557,1 53432U 22097AW  23246.31400729  .00004027  00000-0  27108-3 0  9994,2 53432  53.2183 266.6323 0001406  82.7511 277.3641 15.08823273 59669,6917.932,95.439,540.769,538.824,0.0
53432.0,STARLINK-4557,PAYLOAD,2023-09-03 10:42:56,15.08842002,0.0001265,53.2167,266.0372,86.2684,273.8453,5.3492e-05,5.64e-06,0.0,0 STARLINK-4557,1 53432U 22097AW  23246.44648309  .00000564  00000-0  53492-4 0  9994,2 53432  53.2167 266.0372 0001265  86.2684 273.8453 15.08842002 60162,6917.874,95.437,540.614,538.864,0.0
53432.0,STARLINK-4557,PAYLOAD,2023-09-03 18:39:51,15.08839537,0.0001285,53.2166,264.5501,84.9388,275.175,4.1486e-05,3.72e-06,0.0,0 STARLINK-4557,1 53432U 22097AW  23246.77768483  .00000372  00000-0  41486-4 0  9993,2 53432  53.2166 264.5501 0001285  84.9388 275.1750 15.08839537 59731,6917.882,95.438,540.636,538.858,0.0
53432.0,STARLINK-4557,PAYLOAD,2023-09-04 10:33:43,15.0884655,0.0001249,53.2163,261.5765,84.5307,275.5827,-7.0009e-05,-1.402e-05,0.0,0 STARLINK-4557,1 53432U 22097AW  23247.44008380 -.00001402  00000-0 -70009-4 0  9991,2 53432  53.2163 261.5765 0001249  84.5307 275.5827 15.08846550 60312,6917.86,95.437,540.589,538.861,0.0
53432.0,STARLINK-4557,PAYLOAD,2023-09-05 00:52:11,15.08829441,0.0001313,53.2166,258.8997,92.4992,267.615,0.00022401,3.278e-05,0.0,0 STARLINK-4557,1 53432U 22097AW  23248.03624801  .00003278  00000-0  22401-3 0  9992,2 53432  53.2166 258.8997 0001313  92.4992 267.6150 15.08829441 59927,6917.913,95.438,540.686,538.869,0.0
53432.0,STARLINK-4557,PAYLOAD,2023-09-05 11:59:53,15.0884561,0.0001285,53.2165,256.8183,90.8957,269.2182,9.5972e-05,1.24e-05,0.0,0 STARLINK-4557,1 53432U 22097AW  23248.49992039  .00001240  00000-0  95972-4 0  9994,2 53432  53.2165 256.8183 0001285  90.8957 269.2182 15.08845610 60473,6917.863,95.437,540.617,538.839,0.0
53432.0,STARLINK-4557,PAYLOAD,2023-09-06 02:18:22,15.08834991,0.0001298,53.2162,254.1424,90.7098,269.4043,6.0581e-05,6.76e-06,0.0,0 STARLINK-4557,1 53432U 22097AW  23249.09608860  .00000676  00000-0  60581-4 0  9997,2 53432  53.2162 254.1424 0001298  90.7098 269.4043 15.08834991 60083,6917.896,95.438,540.659,538.863,0.0
53432.0,STARLINK-4557,PAYLOAD,2023-09-07 10:06:04,15.0884858,0.0001263,53.2165,248.195,92.5216,267.5921,-7.2023e-05,-1.434e-05,0.0,0 STARLINK-4557,1 53432U 22097AW  23250.42088548 -.00001434  00000-0 -72023-4 0  9990,2 53432  53.2165 248.1950 0001263  92.5216 267.5921 15.08848580 60282,6917.854,95.437,540.593,538.845,0.0
53432.0,STARLINK-4557,PAYLOAD,2023-09-07 11:41:27,15.08841796,0.000141,53.2165,247.8977,103.242,256.8729,3.8694e-05,3.28e-06,0.0,0 STARLINK-4557,1 53432U 22097AW  23250.48712591  .00000328  00000-0  38694-4 0  9993,2 53432  53.2165 247.8977 0001410 103.2420 256.8729 15.08841796 60771,6917.875,95.437,540.715,538.764,0.0
53432.0,STARLINK-4557,PAYLOAD,2023-09-08 00:24:33,15.0883434,0.0001496,53.2157,245.5188,96.5727,263.5435,2.4052e-05,9.5e-07,0.0,0 STARLINK-4557,1 53432U 22097AW  23251.01705281  .00000095  00000-0  24052-4 0  9995,2 53432  53.2157 245.5188 0001496  96.5727 263.5435 15.08834340 60371,6917.898,95.438,540.798,538.728,0.0
53432.0,STARLINK-4557,PAYLOAD,2023-09-08 11:32:15,15.08838406,0.0001502,53.2162,243.4372,96.3434,263.7729,7.0765e-05,8.38e-06,0.0,0 STARLINK-4557,1 53432U 22097AW  23251.48073021  .00000838  00000-0  70765-4 0  9993,2 53432  53.2162 243.4372 0001502  96.3434 263.7729 15.08838406 60926,6917.885,95.438,540.789,538.711,0.0
53432.0,STARLINK-4557,PAYLOAD,2023-09-08 16:18:24,15.08835489,0.0001387,53.2167,242.5444,93.1163,266.9988,5.7161e-05,6.22e-06,0.0,0 STARLINK-4557,1 53432U 22097AW  23251.67945296  .00000622  00000-0  57161-4 0  9992,2 53432  53.2167 242.5444 0001387  93.1163 266.9988 15.08835489 60959,6917.894,95.438,540.719,538.8,0.0
53432.0,STARLINK-4557,PAYLOAD,2023-09-09 09:47:38,15.08844656,0.0001373,53.2167,239.274,94.0614,266.0535,0.00012315,1.673e-05,0.0,0 STARLINK-4557,1 53432U 22097AW  23252.40808652  .00001673  00000-0  12315-3 0  9996,2 53432  53.2167 239.2740 0001373  94.0614 266.0535 15.08844656 60581,6917.866,95.437,540.681,538.781,0.0
53432.0,STARLINK-4557,PAYLOAD,2023-09-09 16:09:11,15.08839069,0.0001352,53.2171,238.0842,91.8706,268.2441,5.6023e-05,6.04e-06,0.0,0 STARLINK-4557,1 53432U 22097AW  23252.67305213  .00000604  00000-0  56023-4 0  9998,2 53432  53.2171 238.0842 0001352  91.8706 268.2441 15.08839069 60627,6917.883,95.438,540.684,538.813,0.0
53432.0,STARLINK-4557,PAYLOAD,2023-09-10 08:03:03,15.08842194,0.0001399,53.2171,235.111,86.1719,273.9433,5.8207e-05,6.39e-06,0.0,0 STARLINK-4557,1 53432U 22097AW  23253.33545224  .00000639  00000-0  58207-4 0  9994,2 53432  53.2171 235.1110 0001399  86.1719 273.9433 15.08842194 61207,6917.874,95.437,540.706,538.771,0.0
53432.0,STARLINK-4557,PAYLOAD,2023-09-11 03:07:40,15.08840406,0.0001443,53.2175,231.5434,89.7492,270.3665,5.4907e-05,5.86e-06,0.0,0 STARLINK-4557,1 53432U 22097AW  23254.13033475  .00000586  00000-0  54907-4 0  9997,2 53432  53.2175 231.5434 0001443  89.7492 270.3665 15.08840406 60848,6917.879,95.438,540.742,538.746,0.0
53432.0,STARLINK-4557,PAYLOAD,2023-09-11 11:04:36,15.08847411,0.0001376,53.217,230.0559,91.0873,269.0277,6.6098e-05,7.64e-06,0.0,0 STARLINK-4557,1 53432U 22097AW  23254.46152896  .00000764  00000-0  66098-4 0  9994,2 53432  53.2170 230.0559 0001376  91.0873 269.0277 15.08847411 61375,6917.858,95.437,540.675,538.771,0.0
53432.0,STARLINK-4557,PAYLOAD,2023-09-12 02:58:28,15.08831464,0.0001333,53.2169,227.0831,90.9241,269.1904,0.00018642,2.68e-05,0.0,0 STARLINK-4557,1 53432U 22097AW  23255.12393765  .00002680  00000-0  18642-3 0  9990,2 53432  53.2169 227.0831 0001333  90.9241 269.1904 15.08831464 60998,6917.906,95.438,540.694,538.849,0.0
53432.0,STARLINK-4557,PAYLOAD,2023-09-12 07:44:37,15.08845376,0.0001367,53.2167,226.1893,93.2989,266.816,7.8941e-05,9.69e-06,0.0,0 STARLINK-4557,1 53432U 22097AW  23255.32265059  .00000969  00000-0  78941-4 0  9993,2 53432  53.2167 226.1893 0001367  93.2989 266.8160 15.08845376 61026,6917.864,95.437,540.675,538.783,0.0
53432.0,STARLINK-4557,PAYLOAD,2023-09-12 15:41:32,15.08845295,0.0001361,53.2168,224.7023,92.2725,267.8423,5.986e-05,6.65e-06,0.0,0 STARLINK-4557,1 53432U 22097AW  23255.65385073  .00000665  00000-0  59860-4 0  9990,2 53432  53.2168 224.7023 0001361  92.2725 267.8423 15.08845295 61558,6917.864,95.437,540.671,538.788,0.0
53432.0,STARLINK-4557,PAYLOAD,2023-09-13 07:35:23,15.0885562,0.0001476,53.2171,221.7276,98.5586,261.5574,0.00013565,1.872e-05,0.0,0 STARLINK-4557,1 53432U 22097AW  23256.31624177  .00001872  00000-0  13565-3 0  9997,2 53432  53.2171 221.7276 0001476  98.5586 261.5574 15.08855620 61652,6917.833,95.437,540.719,538.677,0.0
53432.0,STARLINK-4557,PAYLOAD,2023-09-14 02:40:02,15.08834168,0.0001526,53.2159,218.1606,99.647,260.4695,-4.0168e-05,-9.27e-06,0.0,0 STARLINK-4557,1 53432U 22097AW  23257.11113843 -.00000927  00000-0 -40168-4 0  9991,2 53432  53.2159 218.1606 0001526  99.6470 260.4695 15.08834168 61291,6917.898,95.438,540.819,538.708,0.0
53432.0,STARLINK-4557,PAYLOAD,2023-09-14 07:26:11,15.08835229,0.0001441,53.2158,217.2685,90.2383,269.8774,-9.7544e-06,-4.43e-06,0.0,0 STARLINK-4557,1 53432U 22097AW  23257.30985912 -.00000443  00000-0 -97544-5 0  9990,2 53432  53.2158 217.2685 0001441  90.2383 269.8774 15.08835229 61800,6917.895,95.438,540.757,538.763,0.0
53432.0,STARLINK-4557,PAYLOAD,2023-09-15 04:06:12,15.08851361,0.0001366,53.2159,213.4041,92.5915,267.5234,0.0001677,2.383e-05,0.0,0 STARLINK-4557,1 53432U 22097AW  23258.17097229  .00002383  00000-0  16770-3 0  9994,2 53432  53.2159 213.4041 0001366  92.5915 267.5234 15.08851361 61459,6917.846,95.437,540.656,538.766,0.0
53432.0,STARLINK-4557,PAYLOAD,2023-09-16 00:46:13,15.08841861,0.0001375,53.2164,209.5382,88.1062,272.0088,0.00015715,2.214e-05,0.0,0 STARLINK-4557,1 53432U 22097AW  23259.03209828  .00002214  00000-0  15715-3 0  9991,2 53432  53.2164 209.5382 0001375  88.1062 272.0088 15.08841861 61589,6917.875,95.437,540.691,538.788,0.0
